{"type": "FeatureCollection", "features": [ {"type": "Feature", "properties": {"norad_id": 66707, "name": "FLOCK 4H-4", "group": "last-30-days", "lat": 44.237697850036774, "lon": -102.43132098012114, "alt_km": 511.2765114013464, "timestamp": "2025-12-24T16:52:40.178145+00:00", "meta": {"OBJECT_NAME": "FLOCK 4H-4", "OBJECT_ID": "2025-276AT", "EPOCH": "2025-12-24T05:12:13.396608", "MEAN_MOTION": 15.17227457, "ECCENTRICITY": 0.00036438, "INCLINATION": 97.4425, "RA_OF_ASC_NODE": 69.7779, "ARG_OF_PERICENTER": 244.7636, "MEAN_ANOMALY": 115.322, "EPHEMERIS_TYPE": 0, "CLASSIFICATION_TYPE": "U", "NORAD_CAT_ID": 66707, "ELEMENT_SET_NO": 999, "REV_AT_EPOCH": 386, "BSTAR": 0.0005621892, "MEAN_MOTION_DOT": 0.00011124, "MEAN_MOTION_DDOT": 0}, "tle": {"line1": "1 66707U 25276AT  25358.21682172  .00011124  00000+0  56219-3 0  9994", "line2": "2 66707  97.4425  69.7779 0003643 244.7636 115.3220 15.17227457  3864"}}, "geometry": {"type": "Point", "coordinates": [-102.43132098012114, 44.237697850036774]}}, {"type": "Feature", "properties": {"norad_id": 66708, "name": "FLOCK 4H-5", "group": "last-30-days", "lat": -43.699517762594795, "lon": -116.89388325628342, "alt_km": 518.1931873252543, "timestamp": "2025-12-24T16:52:40.178155+00:00", "meta": {"OBJECT_NAME": "FLOCK 4H-5", "OBJECT_ID": "2025-276AU", "EPOCH": "2025-12-24T06:24:10.440864", "MEAN_MOTION": 15.18187007, "ECCENTRICITY": 0.000127, "INCLINATION": 97.4382, "RA_OF_ASC_NODE": 69.8489, "ARG_OF_PERICENTER": 124.4743, "MEAN_ANOMALY": 235.6611, "EPHEMERIS_TYPE": 0, "CLASSIFICATION_TYPE": "U", "NORAD_CAT_ID": 66708, "ELEMENT_SET_NO": 999, "REV_AT_EPOCH": 387, "BSTAR": 0.00054114407, "MEAN_MOTION_DOT": 0.00011003, "MEAN_MOTION_DDOT": 0}, "tle": {"line1": "1 66708U 25276AU  25358.26678751  .00011003  00000+0  54114-3 0  9996", "line2": "2 66708  97.4382  69.8489 0001270 124.4743 235.6611 15.18187007  3871"}}, "geometry": {"type": "Point", "coordinates": [-116.89388325628342, -43.699517762594795]}}, {"type": "Feature", "properties": {"norad_id": 66709, "name": "FLOCK 4H-6", "group": "last-30-days", "lat": -22.32441724911661, "lon": -112.78889460371985, "alt_km": 515.6529806103008, "timestamp": "2025-12-24T16:52:40.178169+00:00", "meta": {"OBJECT_NAME": "FLOCK 4H-6", "OBJECT_ID": "2025-276AV", "EPOCH": "2025-12-24T06:29:46.208544", "MEAN_MOTION": 15.17928518, "ECCENTRICITY": 0.00027568, "INCLINATION": 97.4431, "RA_OF_ASC_NODE": 69.863, "ARG_OF_PERICENTER": 200.2285, "MEAN_ANOMALY": 159.884, "EPHEMERIS_TYPE": 0, "CLASSIFICATION_TYPE": "U", "NORAD_CAT_ID": 66709, "ELEMENT_SET_NO": 999, "REV_AT_EPOCH": 387, "BSTAR": 0.00040148741, "MEAN_MOTION_DOT": 8.083e-05, "MEAN_MOTION_DDOT": 0}, "tle": {"line1": "1 66709U 25276AV  25358.27067371  .00008083  00000+0  40149-3 0  9995", "line2": "2 66709  97.4431  69.8630 0002756 200.2285 159.8840 15.17928518  3879"}}, "geometry": {"type": "Point", "coordinates": [-112.78889460371985, -22.32441724911661]}}, {"type": "Feature", "properties": {"norad_id": 66710, "name": "FLOCK 4H-7", "group": "last-30-days", "lat": 20.361306767753543, "lon": -106.97191988575068, "alt_km": 513.8264038040679, "timestamp": "2025-12-24T16:52:40.178180+00:00", "meta": {"OBJECT_NAME": "FLOCK 4H-7", "OBJECT_ID": "2025-276AW", "EPOCH": "2025-12-24T05:05:59.702784", "MEAN_MOTION": 15.17500392, "ECCENTRICITY": 0.00010311, "INCLINATION": 97.4388, "RA_OF_ASC_NODE": 69.7667, "ARG_OF_PERICENTER": 280.5939, "MEAN_ANOMALY": 79.5178, "EPHEMERIS_TYPE": 0, "CLASSIFICATION_TYPE": "U", "NORAD_CAT_ID": 66710, "ELEMENT_SET_NO": 999, "REV_AT_EPOCH": 386, "BSTAR": 0.00032298591, "MEAN_MOTION_DOT": 6.408e-05, "MEAN_MOTION_DDOT": 0}, "tle": {"line1": "1 66710U 25276AW  25358.21249656  .00006408  00000+0  32299-3 0  9995", "line2": "2 66710  97.4388  69.7667 0001031 280.5939  79.5178 15.17500392  3860"}}, "geometry": {"type": "Point", "coordinates": [-106.97191988575068, 20.361306767753543]}}, {"type": "Feature", "properties": {"norad_id": 66711, "name": "FLOCK 4H-8", "group": "last-30-days", "lat": 21.6194236125242, "lon": -106.76054140681971, "alt_km": 513.5801839816377, "timestamp": "2025-12-24T16:52:40.178190+00:00", "meta": {"OBJECT_NAME": "FLOCK 4H-8", "OBJECT_ID": "2025-276AX", "EPOCH": "2025-12-24T03:31:22.233504", "MEAN_MOTION": 15.17501697, "ECCENTRICITY": 0.00023811, "INCLINATION": 97.4428, "RA_OF_ASC_NODE": 69.7228, "ARG_OF_PERICENTER": 261.4639, "MEAN_ANOMALY": 98.6325, "EPHEMERIS_TYPE": 0, "CLASSIFICATION_TYPE": "U", "NORAD_CAT_ID": 66711, "ELEMENT_SET_NO": 999, "REV_AT_EPOCH": 385, "BSTAR": 0.00054211828, "MEAN_MOTION_DOT": 0.00010808, "MEAN_MOTION_DDOT": 0}, "tle": {"line1": "1 66711U 25276AX  25358.14678511  .00010808  00000+0  54212-3 0  9992", "line2": "2 66711  97.4428  69.7228 0002381 261.4639  98.6325 15.17501697  3857"}}, "geometry": {"type": "Point", "coordinates": [-106.76054140681971, 21.6194236125242]}}, {"type": "Feature", "properties": {"norad_id": 66712, "name": "FLOCK 4H-9", "group": "last-30-days", "lat": -21.31228686930234, "lon": -112.63718870492607, "alt_km": 515.5625859834436, "timestamp": "2025-12-24T16:52:40.178202+00:00", "meta": {"OBJECT_NAME": "FLOCK 4H-9", "OBJECT_ID": "2025-276AY", "EPOCH": "2025-12-24T06:30:02.516544", "MEAN_MOTION": 15.17937949, "ECCENTRICITY": 0.00027173, "INCLINATION": 97.4421, "RA_OF_ASC_NODE": 69.8608, "ARG_OF_PERICENTER": 209.4343, "MEAN_ANOMALY": 150.6738, "EPHEMERIS_TYPE": 0, "CLASSIFICATION_TYPE": "U", "NORAD_CAT_ID": 66712, "ELEMENT_SET_NO": 999, "REV_AT_EPOCH": 387, "BSTAR": 0.00064316487, "MEAN_MOTION_DOT": 0.00013001, "MEAN_MOTION_DDOT": 0}, "tle": {"line1": "1 66712U 25276AY  25358.27086246  .00013001  00000+0  64316-3 0  9999", "line2": "2 66712  97.4421  69.8608 0002717 209.4343 150.6738 15.17937949  3873"}}, "geometry": {"type": "Point", "coordinates": [-112.63718870492607, -21.31228686930234]}}, {"type": "Feature", "properties": {"norad_id": 66713, "name": "FLOCK 4H-10", "group": "last-30-days", "lat": 40.30759480974936, "lon": -103.38973697551822, "alt_km": 511.4796089639649, "timestamp": "2025-12-24T16:52:40.178214+00:00", "meta": {"OBJECT_NAME": "FLOCK 4H-10", "OBJECT_ID": "2025-276AZ", "EPOCH": "2025-12-24T03:36:14.292288", "MEAN_MOTION": 15.17294576, "ECCENTRICITY": 0.00034586, "INCLINATION": 97.4392, "RA_OF_ASC_NODE": 69.7034, "ARG_OF_PERICENTER": 245.3697, "MEAN_ANOMALY": 114.7177, "EPHEMERIS_TYPE": 0, "CLASSIFICATION_TYPE": "U", "NORAD_CAT_ID": 66713, "ELEMENT_SET_NO": 999, "REV_AT_EPOCH": 385, "BSTAR": 0.00060932999, "MEAN_MOTION_DOT": 0.00012087, "MEAN_MOTION_DDOT": 0}, "tle": {"line1": "1 66713U 25276AZ  25358.15016542  .00012087  00000+0  60933-3 0  9993", "line2": "2 66713  97.4392  69.7034 0003458 245.3697 114.7177 15.17294576  3855"}}, "geometry": {"type": "Point", "coordinates": [-103.38973697551822, 40.30759480974936]}}, {"type": "Feature", "properties": {"norad_id": 66714, "name": "FLOCK 4H-11", "group": "last-30-days", "lat": 8.52261103479077, "lon": -108.6063557754231, "alt_km": 514.4422493132261, "timestamp": "2025-12-24T16:52:40.178225+00:00", "meta": {"OBJECT_NAME": "FLOCK 4H-11", "OBJECT_ID": "2025-276BA", "EPOCH": "2025-12-24T05:02:59.541504", "MEAN_MOTION": 15.17823275, "ECCENTRICITY": 0.00020548, "INCLINATION": 97.4414, "RA_OF_ASC_NODE": 69.7869, "ARG_OF_PERICENTER": 269.2812, "MEAN_ANOMALY": 90.8186, "EPHEMERIS_TYPE": 0, "CLASSIFICATION_TYPE": "U", "NORAD_CAT_ID": 66714, "ELEMENT_SET_NO": 999, "REV_AT_EPOCH": 386, "BSTAR": 0.00067840468, "MEAN_MOTION_DOT": 0.00013672, "MEAN_MOTION_DDOT": 0}, "tle": {"line1": "1 66714U 25276BA  25358.21041136  .00013672  00000+0  67840-3 0  9993", "line2": "2 66714  97.4414  69.7869 0002054 269.2812  90.8186 15.17823275  3861"}}, "geometry": {"type": "Point", "coordinates": [-108.6063557754231, 8.52261103479077]}}, {"type": "Feature", "properties": {"norad_id": 66715, "name": "FLOCK 4H-12", "group": "last-30-days", "lat": -33.60839409581312, "lon": -114.69378428945126, "alt_km": 515.8605665209261, "timestamp": "2025-12-24T16:52:40.178235+00:00", "meta": {"OBJECT_NAME": "FLOCK 4H-12", "OBJECT_ID": "2025-276BB", "EPOCH": "2025-12-24T06:26:47.923008", "MEAN_MOTION": 15.18009787, "ECCENTRICITY": 0.00040885, "INCLINATION": 97.4412, "RA_OF_ASC_NODE": 69.8621, "ARG_OF_PERICENTER": 179.4633, "MEAN_ANOMALY": 180.6606, "EPHEMERIS_TYPE": 0, "CLASSIFICATION_TYPE": "U", "NORAD_CAT_ID": 66715, "ELEMENT_SET_NO": 999, "REV_AT_EPOCH": 418, "BSTAR": -0.00064286509, "MEAN_MOTION_DOT": -0.0001311, "MEAN_MOTION_DDOT": 0}, "tle": {"line1": "1 66715U 25276BB  25358.26861022 -.00013110  00000+0 -64287-3 0  9994", "line2": "2 66715  97.4412  69.8621 0004088 179.4633 180.6606 15.18009787  4185"}}, "geometry": {"type": "Point", "coordinates": [-114.69378428945126, -33.60839409581312]}}, {"type": "Feature", "properties": {"norad_id": 66716, "name": "FLOCK 4H-13", "group": "last-30-days", "lat": -43.85283254801684, "lon": -116.92314671393692, "alt_km": 521.742971030104, "timestamp": "2025-12-24T16:52:40.178247+00:00", "meta": {"OBJECT_NAME": "FLOCK 4H-13", "OBJECT_ID": "2025-276BC", "EPOCH": "2025-12-24T06:23:52.113696", "MEAN_MOTION": 15.17644812, "ECCENTRICITY": 0.00048, "INCLINATION": 97.441, "RA_OF_ASC_NODE": 69.8612, "ARG_OF_PERICENTER": 114.7474, "MEAN_ANOMALY": 245.426, "EPHEMERIS_TYPE": 0, "CLASSIFICATION_TYPE": "U", "NORAD_CAT_ID": 66716, "ELEMENT_SET_NO": 999, "REV_AT_EPOCH": 387, "BSTAR": -0.015896596, "MEAN_MOTION_DOT": -0.00306849, "MEAN_MOTION_DDOT": 0}, "tle": {"line1": "1 66716U 25276BC  25358.26657539 -.00306849  00000+0 -15897-1 0  9996", "line2": "2 66716  97.4410  69.8612 0004800 114.7474 245.4260 15.17644812  3875"}}, "geometry": {"type": "Point", "coordinates": [-116.92314671393692, -43.85283254801684]}}]}